ONEWEB-0668             
1 56711U 23068B   26005.11145361  .00000084  00000+0  18527-3 0  9991
2 56711  87.9054 261.2286 0001379  96.4552 263.6736 13.16593787130325
ONEWEB-0676             
1 56712U 23068C   26005.11935326  .00000075  00000+0  16365-3 0  9998
2 56712  87.9043 261.2469 0001825  76.1706 283.9628 13.16598605130249
ONEWEB-0677             
1 56713U 23068D   26005.08235909 -.00000095  00000+0 -26521-3 0  9994
2 56713  87.9229 306.9684 0001883  81.4994 278.6353 13.20770244128276
ONEWEB-0678             
1 56714U 23068E   26004.86491089  .00000204  00000+0  50910-3 0  9992
2 56714  87.9014 291.7797 0001738  63.1205 297.0103 13.15548741127812
ONEWEB-0679             
1 56715U 23068F   26005.15420252  .00000217  00000+0  53324-3 0  9996
2 56715  87.9041 261.2221 0001791  94.6438 265.4897 13.16593905130279
ONEWEB-0680             
1 56716U 23068G   26005.12230971  .00000022  00000+0  22270-4 0  9992
2 56716  87.9229 276.4878 0001579  97.3473 262.7840 13.21823805129555
ONEWEB-0681             
1 56717U 23068H   26005.17743806  .00000161  00000+0  35851-3 0  9996
2 56717  87.9223 276.4901 0002648  75.5932 284.5496 13.21827850129556
ONEWEB-0682             
1 56718U 23068J   26005.04316857 -.00000227  00000+0 -63764-3 0  9994
2 56718  87.9008 291.7562 0001669  92.4607 267.6714 13.15549187128001
